[{"OBJECT_NAME":"SNAP-3 JIMI","OBJECT_ID":"2015-058M","EPOCH":"2026-03-09T15:09:34.376832","MEAN_MOTION":15.01135599,"ECCENTRICITY":0.0105534,"INCLINATION":64.7662,"RA_OF_ASC_NODE":174.484,"ARG_OF_PERICENTER":96.511,"MEAN_ANOMALY":264.8035,"EPHEMERIS_TYPE":0,"CLASSIFICATION_TYPE":"U","NORAD_CAT_ID":40975,"ELEMENT_SET_NO":999,"REV_AT_EPOCH":9927,"BSTAR":0.00051665,"MEAN_MOTION_DOT":7.303e-5,"MEAN_MOTION_DDOT":0},{"OBJECT_NAME":"LILIUM-3","OBJECT_ID":"2025-276DJ","EPOCH":"2026-03-09T16:54:54.141120","MEAN_MOTION":15.18939749,"ECCENTRICITY":0.00011225,"INCLINATION":97.4313,"RA_OF_ASC_NODE":144.1145,"ARG_OF_PERICENTER":186.7966,"MEAN_ANOMALY":173.3253,"EPHEMERIS_TYPE":0,"CLASSIFICATION_TYPE":"U","NORAD_CAT_ID":66770,"ELEMENT_SET_NO":999,"REV_AT_EPOCH":1532,"BSTAR":0.00016352677,"MEAN_MOTION_DOT":3.348e-5,"MEAN_MOTION_DDOT":0}]
